SAUDISAT 1C             
1 27607U 02058C   23021.37495824  .00003064  00000+0  43504-3 0  9998
2 27607  64.5568 354.8221 0079412 253.2308 106.0071 14.76638374 80753
SAUDISAT 2              
1 28371U 04025F   23021.41026527  .00000727  00000+0  18009-3 0  9993
2 28371  98.4096 343.9564 0025772 152.3330 207.9241 14.54713038984971
SAUDISAT 3              
1 31118U 07012B   23021.41953686  .00000789  00000+0  14120-3 0  9998
2 31118  97.9971 328.5113 0014163 217.9944 142.0264 14.69479601845162
PISAT                   
1 41784U 16059B   23020.61434081  .00001829  00000+0  35361-3 0  9999
2 41784  97.8898  60.2217 0031103 200.3340 159.6627 14.64236548337465
FLYING LAPTOP           
1 42831U 17042G   23020.82164361  .00002642  00000+0  26288-3 0  9992
2 42831  97.3998 227.4083 0013975   6.8824 353.2590 14.92365289300508
SALSAT                  
1 46495U 20068K   23020.37026432  .00006526  00000+0  45307-3 0  9998
2 46495  97.7549 327.1702 0014040 261.2160  98.7476 15.05834602126813
